NORAD_CAT_ID,OBJECT_NAME,OBJECT_TYPE,EPOCH,MEAN_MOTION,ECCENTRICITY,INCLINATION,RA_OF_ASC_NODE,ARG_OF_PERICENTER,MEAN_ANOMALY,BSTAR,MEAN_MOTION_DOT,MEAN_MOTION_DDOT,TLE_LINE0,TLE_LINE1,TLE_LINE2,SEMIMAJOR_AXIS,PERIOD,APOGEE,PERIGEE,DECAYED
50195.0,STARLINK-3266,PAYLOAD,2023-11-11 15:24:36,15.08840641,0.0001164,53.2174,90.6399,104.0042,256.108,4.7444e-05,4.67e-06,0.0,0 STARLINK-3266,1 50195U 21125AR  23315.64209167  .00000467  00000-0  47444-4 0  9994,2 50195  53.2174  90.6399 0001164 104.0042 256.1080 15.08840641108078,6917.878,95.438,540.549,538.938,0.0
50195.0,STARLINK-3266,PAYLOAD,2023-11-12 13:40:00,15.08846061,0.0001329,53.2181,86.4763,96.79,263.3243,0.00012558,1.712e-05,0.0,0 STARLINK-3266,1 50195U 21125AR  23316.56944632  .00001712  00000-0  12558-3 0  9990,2 50195  53.2181  86.4763 0001329  96.7900 263.3243 15.08846061108698,6917.862,95.437,540.646,538.807,0.0
50195.0,STARLINK-3266,PAYLOAD,2023-11-12 18:26:09,15.08850261,0.0001347,53.2174,85.5828,97.9811,262.1334,0.00021183,3.086e-05,0.0,0 STARLINK-3266,1 50195U 21125AR  23316.76816456  .00003086  00000-0  21183-3 0  9994,2 50195  53.2174  85.5828 0001347  97.9811 262.1334 15.08850261108242,6917.849,95.437,540.646,538.782,0.0
50195.0,STARLINK-3266,PAYLOAD,2023-11-13 11:55:23,15.08846461,0.0001401,53.2174,82.3107,107.9036,252.2109,0.00016391,2.322e-05,0.0,0 STARLINK-3266,1 50195U 21125AR  23317.49680460  .00002322  00000-0  16391-3 0  9996,2 50195  53.2174  82.3107 0001401 107.9036 252.2109 15.08846461108358,6917.861,95.437,540.695,538.756,0.0
50195.0,STARLINK-3266,PAYLOAD,2023-11-13 15:06:10,15.08850239,0.0001401,53.2174,81.7171,96.891,263.2241,0.00020753,3.017e-05,0.0,0 STARLINK-3266,1 50195U 21125AR  23317.62928281  .00003017  00000-0  20753-3 0  9996,2 50195  53.2174  81.7171 0001401  96.8910 263.2241 15.08850239108851,6917.849,95.437,540.683,538.745,0.0
50195.0,STARLINK-3266,PAYLOAD,2023-11-14 11:46:11,15.08838183,0.0001245,53.2173,77.8504,94.8042,265.3093,-1.1457e-05,-4.7e-06,0.0,0 STARLINK-3266,1 50195U 21125AR  23318.49040868 -.00000470  00000-0 -11457-4 0  9992,2 50195  53.2173  77.8504 0001245  94.8042 265.3093 15.08838183108500,6917.886,95.438,540.612,538.89,0.0
50195.0,STARLINK-3266,PAYLOAD,2023-11-14 13:21:34,15.08836935,0.00013,53.2175,77.5537,94.2275,265.8865,-3.0648e-05,-7.76e-06,0.0,0 STARLINK-3266,1 50195U 21125AR  23318.55664945 -.00000776  00000-0 -30648-4 0  9999,2 50195  53.2175  77.5537 0001300  94.2275 265.8865 15.08836935108997,6917.89,95.438,540.654,538.855,0.0
50195.0,STARLINK-3266,PAYLOAD,2023-11-14 18:07:44,15.08839285,0.0001182,53.2178,76.6626,94.1546,265.9581,-2.1355e-05,-6.28e-06,0.0,0 STARLINK-3266,1 50195U 21125AR  23318.75537134 -.00000628  00000-0 -21355-4 0  9991,2 50195  53.2178  76.6626 0001182  94.1546 265.9581 15.08839285109029,6917.883,95.438,540.565,538.93,0.0
50195.0,STARLINK-3266,PAYLOAD,2023-11-15 14:47:44,15.08846126,0.0001214,53.2164,72.7992,91.2411,268.872,3.2779e-05,2.34e-06,0.0,0 STARLINK-3266,1 50195U 21125AR  23319.61648733  .00000234  00000-0  32779-4 0  9998,2 50195  53.2164  72.7992 0001214  91.2411 268.8720 15.08846126109155,6917.862,95.437,540.566,538.887,0.0
50195.0,STARLINK-3266,PAYLOAD,2023-11-15 17:58:30,15.0884795,0.0001222,53.2165,72.2042,90.984,269.1292,4.4542e-05,4.21e-06,0.0,0 STARLINK-3266,1 50195U 21125AR  23319.74896577  .00000421  00000-0  44542-4 0  9992,2 50195  53.2165  72.2042 0001222  90.9840 269.1292 15.08847950108690,6917.856,95.437,540.566,538.876,0.0
50195.0,STARLINK-3266,PAYLOAD,2023-11-16 00:20:03,15.08840716,0.0001197,53.2166,71.0142,86.0395,274.0734,3.3294e-05,2.42e-06,0.0,0 STARLINK-3266,1 50195U 21125AR  23320.01393033  .00000242  00000-0  33294-4 0  9996,2 50195  53.2166  71.0142 0001197  86.0395 274.0734 15.08840716108735,6917.878,95.438,540.571,538.915,0.0
50195.0,STARLINK-3266,PAYLOAD,2023-11-16 08:16:59,15.08830915,0.0001251,53.2166,69.5278,91.2944,268.8192,8.5343e-05,1.07e-05,0.0,0 STARLINK-3266,1 50195U 21125AR  23320.34513846  .00001070  00000-0  85343-4 0  9990,2 50195  53.2166  69.5278 0001251  91.2944 268.8192 15.08830915108780,6917.908,95.438,540.639,538.908,0.0
50195.0,STARLINK-3266,PAYLOAD,2023-11-17 11:18:33,15.08841283,0.000128,53.2171,64.4724,86.2607,273.8531,5.1207e-05,5.27e-06,0.0,0 STARLINK-3266,1 50195U 21125AR  23321.47121581  .00000527  00000-0  51207-4 0  9994,2 50195  53.2171  64.4724 0001280  86.2607 273.8531 15.08841283108950,6917.876,95.437,540.627,538.856,0.0
50195.0,STARLINK-3266,PAYLOAD,2023-11-17 12:53:56,15.08841499,0.0001277,53.2173,64.175,85.1674,274.9464,4.7686e-05,4.71e-06,0.0,0 STARLINK-3266,1 50195U 21125AR  23321.53745551  .00000471  00000-0  47686-4 0  9994,2 50195  53.2173  64.1750 0001277  85.1674 274.9464 15.08841499109447,6917.876,95.437,540.624,538.857,0.0
50195.0,STARLINK-3266,PAYLOAD,2023-11-18 12:44:42,15.08846986,0.0001113,53.2176,59.7142,86.9508,273.1612,0.00019252,2.778e-05,0.0,0 STARLINK-3266,1 50195U 21125AR  23322.53104768  .00002778  00000-0  19252-3 0  9993,2 50195  53.2176  59.7142 0001113  86.9508 273.1612 15.08846986109115,6917.859,95.437,540.494,538.954,0.0
50195.0,STARLINK-3266,PAYLOAD,2023-11-18 15:55:28,15.08854853,0.0001308,53.2179,59.1197,85.6694,274.4448,0.00020211,2.931e-05,0.0,0 STARLINK-3266,1 50195U 21125AR  23322.66352215  .00002931  00000-0  20211-3 0  9997,2 50195  53.2179  59.1197 0001308  85.6694 274.4448 15.08854853109618,6917.835,95.437,540.605,538.795,0.0
50195.0,STARLINK-3266,PAYLOAD,2023-11-18 23:52:25,15.08838717,0.0001499,53.2177,57.6331,88.9665,271.1499,5.4804e-05,5.84e-06,0.0,0 STARLINK-3266,1 50195U 21125AR  23322.99473545  .00000584  00000-0  54804-4 0  9991,2 50195  53.2177  57.6331 0001499  88.9665 271.1499 15.08838717109187,6917.884,95.438,540.786,538.712,0.0
50195.0,STARLINK-3266,PAYLOAD,2023-11-19 12:35:30,15.08834125,0.000135,53.2184,55.2567,86.6573,273.4573,5.7769e-05,6.31e-06,0.0,0 STARLINK-3266,1 50195U 21125AR  23323.52466072  .00000631  00000-0  57769-4 0  9994,2 50195  53.2184  55.2567 0001350  86.6573 273.4573 15.08834125109748,6917.898,95.438,540.697,538.829,0.0
50195.0,STARLINK-3266,PAYLOAD,2023-11-20 12:26:17,15.08845337,0.0001408,53.2165,50.7947,88.9032,271.2122,0.0001035,1.36e-05,0.0,0 STARLINK-3266,1 50195U 21125AR  23324.51825300  .00001360  00000-0  10350-3 0  9991,2 50195  53.2165  50.7947 0001408  88.9032 271.2122 15.08845337109415,6917.864,95.437,540.703,538.755,0.0
50195.0,STARLINK-3266,PAYLOAD,2023-11-20 14:01:39,15.08851092,0.0001427,53.2168,50.4977,86.4827,273.6329,0.00013001,1.782e-05,0.0,0 STARLINK-3266,1 50195U 21125AR  23324.58449049  .00001782  00000-0  13001-3 0  9994,2 50195  53.2168  50.4977 0001427  86.4827 273.6329 15.08851092109908,6917.846,95.437,540.699,538.724,0.0
50195.0,STARLINK-3266,PAYLOAD,2023-11-21 10:41:41,15.08842853,0.0001584,53.2169,46.6316,87.9959,272.1215,0.0002252,3.298e-05,0.0,0 STARLINK-3266,1 50195U 21125AR  23325.44561641  .00003298  00000-0  22520-3 0  9993,2 50195  53.2169  46.6316 0001584  87.9959 272.1215 15.08842853109553,6917.872,95.437,540.832,538.641,0.0
50195.0,STARLINK-3266,PAYLOAD,2023-11-21 12:17:04,15.08848201,0.0001572,53.2184,46.3331,91.6876,268.4296,0.00026285,3.899e-05,0.0,0 STARLINK-3266,1 50195U 21125AR  23325.51185384  .00003899  00000-0  26285-3 0  9996,2 50195  53.2184  46.3331 0001572  91.6876 268.4296 15.08848201110047,6917.855,95.437,540.808,538.633,0.0
50195.0,STARLINK-3266,PAYLOAD,2023-11-22 10:32:28,15.08846008,0.0001926,53.2183,42.1715,116.4389,243.6801,0.00018401,2.642e-05,0.0,0 STARLINK-3266,1 50195U 21125AR  23326.43921649  .00002642  00000-0  18401-3 0  9996,2 50195  53.2183  42.1715 0001926 116.4389 243.6801 15.08846008109705,6917.862,95.437,541.059,538.395,0.0
50195.0,STARLINK-3266,PAYLOAD,2023-11-23 10:23:15,15.08846863,0.0001756,53.2184,37.7172,105.1675,254.9512,0.00024158,3.559e-05,0.0,0 STARLINK-3266,1 50195U 21125AR  23327.43281804  .00003559  00000-0  24158-3 0  9993,2 50195  53.2184  37.7172 0001756 105.1675 254.9512 15.08846863109856,6917.859,95.437,540.939,538.51,0.0
50195.0,STARLINK-3266,PAYLOAD,2023-11-24 11:49:26,15.08833978,0.0001496,53.2178,32.9568,90.3875,269.7289,1.8422e-05,5e-08,0.0,0 STARLINK-3266,1 50195U 21125AR  23328.49266665  .00000005  00000-0  18422-4 0  9999,2 50195  53.2178  32.9568 0001496  90.3875 269.7289 15.08833978110011,6917.899,95.438,540.799,538.729,0.0
50195.0,STARLINK-3266,PAYLOAD,2023-11-24 13:24:49,15.08835453,0.0001556,53.2179,32.6588,102.7285,257.3881,4.0433e-05,3.55e-06,0.0,0 STARLINK-3266,1 50195U 21125AR  23328.55890560  .00000355  00000-0  40433-4 0  9998,2 50195  53.2179  32.6588 0001556 102.7285 257.3881 15.08835453110506,6917.894,95.438,540.836,538.683,0.0
50195.0,STARLINK-3266,PAYLOAD,2023-11-25 11:40:13,15.08853528,0.0001784,53.2184,28.4968,90.5145,269.6052,0.0004249,6.483e-05,0.0,0 STARLINK-3266,1 50195U 21125AR  23329.48626341  .00006483  00000-0  42490-3 0  9997,2 50195  53.2184  28.4968 0001784  90.5145 269.6052 15.08853528110643,6917.839,95.437,540.938,538.47,0.0
50195.0,STARLINK-3266,PAYLOAD,2023-11-26 03:34:04,15.08853098,0.0001604,53.2179,25.5213,83.3257,276.7917,0.00028079,4.185e-05,0.0,0 STARLINK-3266,1 50195U 21125AR  23330.14865843  .00004185  00000-0  28079-3 0  9998,2 50195  53.2179  25.5213 0001604  83.3257 276.7917 15.08853098110262,6917.84,95.437,540.815,538.596,0.0
50195.0,STARLINK-3266,PAYLOAD,2023-11-26 11:30:58,15.08864271,0.0001463,53.2178,24.0326,84.8833,275.2326,0.00038777,5.893e-05,0.0,0 STARLINK-3266,1 50195U 21125AR  23330.47984845  .00005893  00000-0  38777-3 0  9991,2 50195  53.2178  24.0326 0001463  84.8833 275.2326 15.08864271110318,6917.806,95.436,540.683,538.659,0.0
50195.0,STARLINK-3266,PAYLOAD,2023-11-26 13:06:21,15.08868078,0.0001352,53.2176,23.7332,90.565,269.5497,0.00044369,6.786e-05,0.0,0 STARLINK-3266,1 50195U 21125AR  23330.54608615  .00006786  00000-0  44369-3 0  9993,2 50195  53.2176  23.7332 0001352  90.5650 269.5497 15.08868078110805,6917.795,95.436,540.595,538.724,0.0
